# From MPC109143
P/2016 BA14 (PANSTARRS),e,18.8945,180.5319,351.8990,3.024613,0.1873697,0.66520916,303.9143,08/22.0/2020,2000,g 21.0,4.0
# From MPC110494
C/2016 C1 (PANSTARRS),h,02/18.7267/2016,56.2263,181.8105,328.7516,1.002113,8.465784,2000,5.5,4.0
# From MPC101098
C/2016 C2 (NEOWISE),e,38.0637,24.4259,214.5594,65.98661,0.0018387,0.97624309,0.0000,04/19.4116/2016,2000,g 16.0,4.0
# From MPC110494
C/2016 E1 (PANSTARRS),h,06/04.3097/2017,131.8897,233.0691,47.4731,1.006006,8.179695,2000,6.5,4.0
# From MPC 99821
C/2016 E2 (Kowalski),e,135.8978,186.8852,321.9486,140.2645,0.0005933,0.99233401,0.0000,02/07.0125/2016,2000,g 20.0,4.0
# From MPC102098
P/2016 G1 (PANSTARRS),e,10.9687,204.0585,111.2784,2.582617,0.2374729,0.21101673,309.5609,08/22.0/2020,2000,g 14.0,4.0
# From MPEC 2017-D91
P/2016 J1-A (PANSTARRS),e,14.3250,199.8211,46.8973,3.173998,0.1742987,0.22815218,264.5977,08/22.0/2020,2000,g 16.5,4.0
# From MPEC 2017-A77
P/2016 J1-B (PANSTARRS),e,14.3278,199.8260,46.7885,3.173628,0.1743292,0.22800315,264.7187,08/22.0/2020,2000,g 17.0,4.0
# From MPC101099
C/2016 J2 (Denneau),e,130.3335,186.3888,318.6485,641.6326,0.0000606,0.99763049,0.0000,04/12.2929/2016,2000,g 17.0,4.0
# From MPC102099
C/2016 KA (Catalina),e,104.6898,317.5065,63.2074,8595,0.0000012,0.99937097,0.0000,02/02.5042/2016,2000,g  8.5,4.0
# From MPC104792
C/2016 K1 (LINEAR),h,07/13.3890/2016,90.9308,325.6204,18.2931,1.000015,2.294456,2000,13.0,4.0
# From MPC119995
C/2016 M1 (PANSTARRS),e,90.9964,92.2062,209.8868,5142,0.0000027,0.99956977,0.0000,08/10.3367/2018,2000,g  5.0,4.0
# From MPC115881
C/2016 N4 (MASTER),e,72.6056,353.9985,55.9385,2489,0.0000079,0.99871514,0.0000,09/16.5209/2017,2000,g  8.5,4.0
# From MPC119995
C/2016 N6 (PANSTARRS),e,105.8409,298.9905,162.7469,1620,0.0000151,0.99835428,0.0000,07/18.0740/2018,2000,g  7.0,4.0
# From MPC102099
P/2016 P1 (PANSTARRS),e,24.4558,319.5641,270.0675,3.194401,0.1726315,0.28928843,309.5643,08/22.0/2020,2000,g 15.0,4.0
# From MPC102099
C/2016 P4 (PANSTARRS),e,29.8806,320.7302,356.1883,403.1649,0.0001218,0.98537968,0.0000,10/18.2232/2016,2000,g 10.5,4.0
# From MPC118093
C/2016 Q2 (PANSTARRS),e,109.3888,322.2980,84.5080,43196,0.0000001,0.99983605,0.0000,05/11.6231/2021,2000,g  6.0,4.0
# From MPC102955
C/2016 Q4 (Kowalski),e,7.2572,271.2866,99.4110,16.91139,0.0141721,0.58101634,13.2919,08/22.0/2020,2000,g  7.0,4.0
# From MPC119995
C/2016 R2 (PANSTARRS),e,58.2276,80.5670,33.1742,540.6731,0.0000784,0.99518593,0.0000,05/09.2483/2018,2000,g  7.0,4.0
# From MPC102099
C/2016 R3 (Borisov),e,53.0400,78.6886,118.1944,199.5776,0.0003496,0.99773297,0.0000,10/10.3422/2016,2000,g 18.0,4.0
# From MPC109144
P/2016 R4 (Gibbs),e,10.8708,168.2777,174.0073,5.331479,0.0800631,0.47612230,119.4905,08/22.0/2020,2000,g 12.5,4.0
# From MPC105543
P/2016 S1 (PANSTARRS),e,94.6613,227.5316,273.2743,8.278927,0.0413755,0.71007338,51.9201,08/22.0/2020,2000,g 12.0,4.0
# From MPC105238
C/2016 T1 (Matheny),e,129.8485,56.2972,137.4316,124.1841,0.0007122,0.98144297,0.0000,02/01.2972/2017,2000,g 14.5,4.0
# From MPC107685
C/2016 T2 (Matheny),e,81.3815,339.1646,92.2335,99.15293,0.0009983,0.98077862,0.0000,12/29.1238/2016,2000,g 14.5,4.0
# From MPC110082
C/2016 T3 (PANSTARRS),e,22.6785,271.7381,194.6587,132.5451,0.0006459,0.98001215,0.0000,09/06.4978/2017,2000,g 10.5,4.0
# From MPC103847
C/2016 U1 (NEOWISE),h,01/13.9615/2017,46.3608,61.4978,162.8302,1.000405,0.322464,2000,17.0,4.0
# From MPC106345
C/2016 VZ18 (PANSTARRS),e,23.9797,98.9207,36.4186,166.8550,0.0004573,0.99451976,0.0000,03/05.8417/2017,2000,g 19.5,4.0
# From MPC106345
P/2016 WM48 (Lemmon),e,117.4322,59.9022,36.0820,8.166940,0.0422294,0.78399022,53.8415,08/22.0/2020,2000,g 15.0,4.0
# From MPC119995
C/2016 X1 (Lemmon),e,26.4538,256.4163,224.5123,1332,0.0000203,0.99432242,0.0000,04/28.8733/2019,2000,g  6.0,4.0
# From MPC108594
C/2017 A1 (PANSTARRS),e,49.7914,121.0459,2.0399,76.68719,0.0014676,0.97011745,0.0000,05/16.3128/2017,2000,g 13.0,4.0
# From MPC108594
C/2017 A3 (Elenin),e,98.5351,97.9051,304.0256,43.47288,0.0034386,0.91148421,4.4673,08/22.0/2020,2000,g  9.5,4.0
# From MPC114598
C/2017 AB5 (PANSTARRS),e,32.4373,42.6511,78.3440,2514,0.0000078,0.99633552,0.0000,02/15.8873/2018,2000,g  5.5,4.0
# From MPC119995
C/2017 B3 (LINEAR),h,02/02.6332/2019,54.1724,2.1797,284.7865,1.001828,3.922355,2000,6.0,4.0
# From MPC103847
P/2017 B4 (PANSTARRS),e,20.0584,121.4578,11.0197,4.410520,0.1064068,0.36495152,359.9130,01/05.0/2017,2000,g 14.5,4.0
# From MPC104793
C/2017 C1 (NEOWISE),e,65.7532,357.5210,110.0999,20.60002,0.0105415,0.92717070,13.8259,08/22.0/2020,2000,g 18.0,4.0
# From MPC107685
C/2017 C2 (PANSTARRS),e,118.5873,249.7952,138.6217,96.77028,0.0010354,0.97495411,0.0000,01/21.5729/2017,2000,g 14.0,4.0
# From MPC104793
P/2017 D1 (Fuls),e,20.7570,82.1799,8.0778,4.829932,0.0928523,0.43641604,141.0611,08/22.0/2020,2000,g 14.0,4.0
# From MPC112391
C/2017 D2 (Barros),e,31.2570,330.9655,334.4913,3751,0.0000043,0.99933652,0.0000,07/14.8802/2017,2000,g 11.0,4.0
# From MPC114598
C/2017 D3 (ATLAS),h,04/27.3376/2017,125.5819,186.6646,340.8612,1.002145,4.973650,2000,8.0,4.0
# From MPC110495
P/2017 D4 (PANSTARRS),e,10.5292,264.9386,212.3068,7.565930,0.0473599,0.62845026,68.5011,08/22.0/2020,2000,g 13.0,4.0
# From MPC104794
C/2017 D5 (PANSTARRS),e,131.0561,92.7292,287.7592,114.7943,0.0008014,0.98117255,0.0000,01/09.4776/2017,2000,g 16.0,4.0
# From MPC106346
C/2017 E1 (Borisov),h,04/10.5672/2017,14.5691,142.5853,152.6590,1.003052,0.901339,2000,14.0,4.0
# From MPC109144
C/2017 E2 (Tsuchinshan),e,79.0619,11.5987,89.3750,21.53350,0.0098635,0.89082242,15.4214,08/22.0/2020,2000,g 11.5,4.0
# From MPC115882
C/2017 E3 (PANSTARRS),h,06/08.0854/2017,70.6325,220.7381,334.5203,1.006828,5.937950,2000,6.5,4.0
# From MPC105239
C/2017 E4 (Lovejoy),h,04/23.6019/2017,88.0973,223.0561,87.0657,1.001502,0.491157,2000,17.0,4.0
# From MPC105239
C/2017 E5 (Lemmon),e,122.6656,206.3279,306.9177,393.3083,0.0001264,0.99545292,0.0000,06/10.6416/2016,2000,g 13.0,4.0
# From MPC111769
C/2017 F1 (Lemmon),h,11/30.3586/2017,146.4654,158.7847,64.7686,1.003820,4.496613,2000,10.5,4.0
# From MPC114598
C/2017 F2 (PANSTARRS),h,11/27.5787/2017,42.5171,38.6722,135.0436,1.003977,6.931992,2000,7.5,4.0
# From MPC104794
P/2017 G1 (PANSTARRS),e,4.7739,249.6273,224.5580,7.289612,0.0500781,0.65302147,78.9808,08/22.0/2020,2000,g 13.5,4.0
# From MPC108595
P/2017 G2 (PANSTARRS),e,47.9473,79.7899,105.5762,8.071793,0.0429783,0.64835204,50.1644,08/22.0/2020,2000,g 13.0,4.0
# From MPC109144
C/2017 G3 (PANSTARRS),e,159.0576,279.4795,73.1436,312.1112,0.0001787,0.99170046,0.0000,04/15.6466/2017,2000,g 14.0,4.0
# From MPC115882
C/2017 K1 (PANSTARRS),h,03/17.2939/2018,154.0123,225.6596,4.3903,1.001936,7.289450,2000,7.0,4.0
# From MPC119995
C/2017 K2 (PANSTARRS),h,12/19.9082/2022,87.5448,88.2607,236.1698,1.000443,1.798883,2000,1.5,4.0
# From MPC106346
P/2017 K3 (Gasparovic),e,4.2740,354.2920,253.4610,5.581334,0.0747476,0.58070275,88.0865,08/22.0/2020,2000,g 14.5,4.0
# From MPC114598
C/2017 K4 (ATLAS),e,16.6806,298.8679,15.2220,28.48104,0.0064844,0.90694457,6.2028,08/22.0/2020,2000,g 10.0,4.0
# From MPC119995
C/2017 K5 (PANSTARRS),h,03/25.6240/2020,82.2508,102.3742,171.9314,1.006828,7.679166,2000,5.0,4.0
# From MPC114599
C/2017 K6 (Jacques),e,57.2515,85.0441,303.7598,1060,0.0000285,0.99811513,0.0000,01/03.2997/2018,2000,g 11.0,4.0
# From MPC110083
C/2017 M3 (PANSTARRS),e,77.5456,7.0111,110.3492,167.2199,0.0004558,0.97214524,0.0000,04/28.1377/2017,2000,g 10.5,4.0
# From MPC118093
C/2017 M4 (ATLAS),h,01/17.8998/2019,105.6460,65.8693,167.5791,1.001190,3.252263,2000,6.0,4.0
# From MPC118841
C/2017 M5 (TOTAS),h,06/04.0073/2018,15.8797,216.2788,92.7418,1.005282,5.992738,2000,6.5,4.0
# From MPC114599
C/2017 O1 (ASASSN),e,39.8915,25.7684,20.8487,356.6819,0.0001463,0.99580758,0.0000,10/14.7972/2017,2000,g 11.0,4.0
# From MPC114599
P/2017 P1 (PANSTARRS),e,7.6977,221.4009,122.2421,7.891898,0.0444562,0.31056646,35.3626,08/22.0/2020,2000,g 10.0,4.0
# From MPC114599
C/2017 P2 (PANSTARRS),e,50.0565,165.4953,132.3411,2041,0.0000107,0.99879243,0.0000,12/06.6863/2017,2000,g 10.0,4.0
# From MPC114599
P/2017 R1 (PANSTARRS),e,2.5738,143.6191,178.5523,4.134968,0.1172184,0.19563229,144.2085,08/22.0/2020,2000,g 13.5,4.0
# From MPC108595
C/2017 S2 (PANSTARRS),e,12.6788,62.4080,305.9458,20.52381,0.0106003,0.82403697,11.5373,08/22.0/2020,2000,g 13.0,4.0
# From MPC114599
C/2017 S3 (PANSTARRS),h,08/15.9897/2018,99.1240,171.1662,255.8422,1.000051,0.208266,2000,11.0,4.0
# From MPC114599
P/2017 S5 (ATLAS),e,11.8506,252.3804,99.8433,3.168578,0.1747461,0.31399713,195.7992,08/22.0/2020,2000,g 14.0,4.0
# From MPC109591
C/2017 S6 (Catalina),h,02/26.5509/2018,152.8674,131.0419,134.8001,1.000660,1.542851,2000,12.5,4.0
# From MPC114599
C/2017 S7 (Lemmon),h,05/25.5663/2017,124.2312,262.7870,187.6033,1.000792,7.608340,2000,7.0,4.0
# From MPC114599
P/2017 S8 (PANSTARRS),e,29.8194,191.6851,254.7338,2.778943,0.2127574,0.39235817,199.4060,08/22.0/2020,2000,g 16.0,4.0
# From MPC107050
P/2017 S9 (PANSTARRS),e,14.1439,146.2210,237.7192,3.153878,0.1759692,0.30503011,198.0967,08/22.0/2020,2000,g 17.0,4.0
# From MPC114600
C/2017 T1 (Heinze),e,96.8380,102.3200,96.9213,79037,0.0000000,0.99999264,0.0000,02/21.3447/2018,2000,g 14.5,4.0
# From MPC119996
C/2017 T2 (PANSTARRS),e,57.2308,64.3775,92.9969,3527,0.0000047,0.99954205,0.0000,05/04.9541/2020,2000,g  5.0,4.0
# From MPC114600
C/2017 T3 (ATLAS),e,88.0467,230.0766,246.8327,1296,0.0000211,0.99936355,0.0000,07/18.9769/2018,2000,g 10.0,4.0
# From MPC115882
P/2017 TW13 (Lemmon),e,44.8488,322.2919,120.0270,7.146988,0.0515845,0.70938289,40.9151,08/22.0/2020,2000,g 15.0,2.0
# From MPC114600
C/2017 U2 (Fuls),e,95.3909,149.7101,147.7782,3954,0.0000040,0.99830439,0.0000,08/28.2774/2017,2000,g  9.0,4.0
# From MPC114600
P/2017 U3 (PANSTARRS),e,15.9143,165.1079,297.0393,4.931242,0.0900056,0.09890306,44.2942,08/22.0/2020,2000,g 11.0,4.0
# From MPC114600
C/2017 U4 (PANSTARRS),h,09/23.9069/2018,158.2199,245.9479,159.0618,1.003059,7.722038,2000,7.0,4.0
# From MPC114600
